{
  "type": "FeatureCollection",
  "features": [
    {
      "type": "Feature",
      "properties": {
        "norad_id": 34389,
        "name": "COSMOS 2251 DEB",
        "group": "cosmos-2251-debris",
        "lat": 54.53852024954343,
        "lon": -71.63175599443052,
        "alt_km": 732.3251789012593,
        "timestamp": "2025-12-04T17:48:40.559061+00:00",
        "meta_object_name": "COSMOS 2251 DEB",
        "meta_object_id": "1993-036QE",
        "meta_epoch": "2025-12-04T04:47:38.941728",
        "meta_mean_motion": 14.41496532,
        "meta_eccentricity": 0.00284997,
        "meta_inclination": 74.0189,
        "meta_ra_of_asc_node": 265.6493,
        "meta_arg_of_pericenter": 19.5826,
        "meta_mean_anomaly": 104.6989,
        "meta_ephemeris_type": 0,
        "meta_classification_type": "U",
        "meta_norad_cat_id": 34389,
        "meta_element_set_no": 999,
        "meta_rev_at_epoch": 87889,
        "meta_bstar": 0.00076934723,
        "meta_mean_motion_dot": 2.484e-05,
        "meta_mean_motion_ddot": 0,
        "tle_line1": "1 34389U 93036QE  25338.19975627  .00002484  00000+0  76935-3 0  9995",
        "tle_line2": "2 34389  74.0189 265.6493 0028499  19.5826 104.6989 14.41496532878892"
      },
      "geometry": {
        "type": "Point",
        "coordinates": [
          -71.63175599443052,
          54.53852024954343
        ]
      }
    },
    {
      "type": "Feature",
      "properties": {
        "norad_id": 34396,
        "name": "COSMOS 2251 DEB",
        "group": "cosmos-2251-debris",
        "lat": 55.75708083236975,
        "lon": -65.23406736210015,
        "alt_km": 640.0094383497917,
        "timestamp": "2025-12-04T17:48:40.559071+00:00",
        "meta_object_name": "COSMOS 2251 DEB",
        "meta_object_id": "1993-036QM",
        "meta_epoch": "2025-12-03T22:17:50.230176",
        "meta_mean_motion": 14.74011296,
        "meta_eccentricity": 0.0007409,
        "meta_inclination": 74.0273,
        "meta_ra_of_asc_node": 141.2363,
        "meta_arg_of_pericenter": 184.0532,
        "meta_mean_anomaly": 303.8182,
        "meta_ephemeris_type": 0,
        "meta_classification_type": "U",
        "meta_norad_cat_id": 34396,
        "meta_element_set_no": 999,
        "meta_rev_at_epoch": 88216,
        "meta_bstar": 0.004134,
        "meta_mean_motion_dot": 0.00027274,
        "meta_mean_motion_ddot": 0,
        "tle_line1": "1 34396U 93036QM  25337.92905359  .00027274  00000+0  41340-2 0  9993",
        "tle_line2": "2 34396  74.0273 141.2363 0007409 184.0532 303.8182 14.74011296882168"
      },
      "geometry": {
        "type": "Point",
        "coordinates": [
          -65.23406736210015,
          55.75708083236975
        ]
      }
    },
    {
      "type": "Feature",
      "properties": {
        "norad_id": 34400,
        "name": "COSMOS 2251 DEB",
        "group": "cosmos-2251-debris",
        "lat": 47.21064277606156,
        "lon": 59.11380787649066,
        "alt_km": 418.49203810242125,
        "timestamp": "2025-12-04T17:48:40.559082+00:00",
        "meta_object_name": "COSMOS 2251 DEB",
        "meta_object_id": "1993-036QR",
        "meta_epoch": "2025-12-04T06:44:48.726528",
        "meta_mean_motion": 15.48895766,
        "meta_eccentricity": 0.00074346,
        "meta_inclination": 73.969,
        "meta_ra_of_asc_node": 42.0304,
        "meta_arg_of_pericenter": 270.0264,
        "meta_mean_anomaly": 90.0097,
        "meta_ephemeris_type": 0,
        "meta_classification_type": "U",
        "meta_norad_cat_id": 34400,
        "meta_element_set_no": 999,
        "meta_rev_at_epoch": 89843,
        "meta_bstar": 0.0063098908,
        "meta_mean_motion_dot": 0.00356603,
        "meta_mean_motion_ddot": 0,
        "tle_line1": "1 34400U 93036QR  25338.28111952  .00356603  00000+0  63099-2 0  9993",
        "tle_line2": "2 34400  73.9690  42.0304 0007434 270.0264  90.0097 15.48895766898435"
      },
      "geometry": {
        "type": "Point",
        "coordinates": [
          59.11380787649066,
          47.21064277606156
        ]
      }
    },
    {
      "type": "Feature",
      "properties": {
        "norad_id": 34409,
        "name": "COSMOS 2251 DEB",
        "group": "cosmos-2251-debris",
        "lat": 56.98361117233047,
        "lon": 115.93997261710209,
        "alt_km": 684.3097692708252,
        "timestamp": "2025-12-04T17:48:40.559093+00:00",
        "meta_object_name": "COSMOS 2251 DEB",
        "meta_object_id": "1993-036RA",
        "meta_epoch": "2025-12-04T07:41:15.178848",
        "meta_mean_motion": 14.57995673,
        "meta_eccentricity": 0.00794801,
        "meta_inclination": 74.0627,
        "meta_ra_of_asc_node": 322.8281,
        "meta_arg_of_pericenter": 39.45,
        "meta_mean_anomaly": 25.758,
        "meta_ephemeris_type": 0,
        "meta_classification_type": "U",
        "meta_norad_cat_id": 34409,
        "meta_element_set_no": 999,
        "meta_rev_at_epoch": 89070,
        "meta_bstar": 0.00043923724,
        "meta_mean_motion_dot": 2.077e-05,
        "meta_mean_motion_ddot": 0,
        "tle_line1": "1 34409U 93036RA  25338.32031457  .00002077  00000+0  43924-3 0  9997",
        "tle_line2": "2 34409  74.0627 322.8281 0079480  39.4500  25.7580 14.57995673890700"
      },
      "geometry": {
        "type": "Point",
        "coordinates": [
          115.93997261710209,
          56.98361117233047
        ]
      }
    },
    {
      "type": "Feature",
      "properties": {
        "norad_id": 34410,
        "name": "COSMOS 2251 DEB",
        "group": "cosmos-2251-debris",
        "lat": -39.49379217212502,
        "lon": 112.68615021444134,
        "alt_km": 521.6766393460766,
        "timestamp": "2025-12-04T17:48:40.559103+00:00",
        "meta_object_name": "COSMOS 2251 DEB",
        "meta_object_id": "1993-036RB",
        "meta_epoch": "2025-12-03T22:08:19.253184",
        "meta_mean_motion": 15.17562106,
        "meta_eccentricity": 0.0020723,
        "meta_inclination": 73.7392,
        "meta_ra_of_asc_node": 280.509,
        "meta_arg_of_pericenter": 121.9342,
        "meta_mean_anomaly": 302.742,
        "meta_ephemeris_type": 0,
        "meta_classification_type": "U",
        "meta_norad_cat_id": 34410,
        "meta_element_set_no": 999,
        "meta_rev_at_epoch": 89640,
        "meta_bstar": 0.004684,
        "meta_mean_motion_dot": 0.00095812,
        "meta_mean_motion_ddot": 0,
        "tle_line1": "1 34410U 93036RB  25337.92244506  .00095812  00000+0  46840-2 0  9993",
        "tle_line2": "2 34410  73.7392 280.5090 0020723 121.9342 302.7420 15.17562106896404"
      },
      "geometry": {
        "type": "Point",
        "coordinates": [
          112.68615021444134,
          -39.49379217212502
        ]
      }
    },
    {
      "type": "Feature",
      "properties": {
        "norad_id": 34412,
        "name": "COSMOS 2251 DEB",
        "group": "cosmos-2251-debris",
        "lat": -70.21667983760662,
        "lon": -73.5250326777997,
        "alt_km": 862.5348736121332,
        "timestamp": "2025-12-04T17:48:40.559114+00:00",
        "meta_object_name": "COSMOS 2251 DEB",
        "meta_object_id": "1993-036RD",
        "meta_epoch": "2025-12-03T10:39:06.052320",
        "meta_mean_motion": 14.46988265,
        "meta_eccentricity": 0.01871303,
        "meta_inclination": 73.9477,
        "meta_ra_of_asc_node": 342.0894,
        "meta_arg_of_pericenter": 79.4118,
        "meta_mean_anomaly": 282.8057,
        "meta_ephemeris_type": 0,
        "meta_classification_type": "U",
        "meta_norad_cat_id": 34412,
        "meta_element_set_no": 999,
        "meta_rev_at_epoch": 87516,
        "meta_bstar": 0.0011167847,
        "meta_mean_motion_dot": 5.031e-05,
        "meta_mean_motion_ddot": 0,
        "tle_line1": "1 34412U 93036RD  25337.44382005  .00005031  00000+0  11168-2 0  9998",
        "tle_line2": "2 34412  73.9477 342.0894 0187130  79.4118 282.8057 14.46988265875165"
      },
      "geometry": {
        "type": "Point",
        "coordinates": [
          -73.5250326777997,
          -70.21667983760662
        ]
      }
    },
    {
      "type": "Feature",
      "properties": {
        "norad_id": 34413,
        "name": "COSMOS 2251 DEB",
        "group": "cosmos-2251-debris",
        "lat": -31.065160109976148,
        "lon": 109.33500170437439,
        "alt_km": 853.8170765663781,
        "timestamp": "2025-12-04T17:48:40.559124+00:00",
        "meta_object_name": "COSMOS 2251 DEB",
        "meta_object_id": "1993-036RE",
        "meta_epoch": "2025-12-03T07:48:21.134304",
        "meta_mean_motion": 14.28961442,
        "meta_eccentricity": 0.0090642,
        "meta_inclination": 74.0314,
        "meta_ra_of_asc_node": 281.9739,
        "meta_arg_of_pericenter": 0.215,
        "meta_mean_anomaly": 126.7484,
        "meta_ephemeris_type": 0,
        "meta_classification_type": "U",
        "meta_norad_cat_id": 34413,
        "meta_element_set_no": 999,
        "meta_rev_at_epoch": 86996,
        "meta_bstar": 0.0025562,
        "meta_mean_motion_dot": 6.734e-05,
        "meta_mean_motion_ddot": 0,
        "tle_line1": "1 34413U 93036RE  25337.32524461  .00006734  00000+0  25562-2 0  9994",
        "tle_line2": "2 34413  74.0314 281.9739 0090642   0.2150 126.7484 14.28961442869965"
      },
      "geometry": {
        "type": "Point",
        "coordinates": [
          109.33500170437439,
          -31.065160109976148
        ]
      }
    }
  ]
}